{
  "type": "FeatureCollection",
  "name": "طبقة السياق: الطرق القديمة",
  "metadata": {
    "author": "Abdulwahed",
    "version": "4.0",
    "description": "شبكة الطرق البرية الموثقة الاستعمال في العصرين البرونزي والحديدي. طبقة مرجعية تُفتح تحت كل الأحداث.",
    "tier_legend": {
      "attested": "موقع أثري مثبت بالتنقيب أو النقوش",
      "inferred": "ممر طبيعي أو محطة مياه يرجّحها المنطق التضاريسي",
      "road": "طريق قديم موثّق الاستعمال",
      "toponym": "اسم مكان يحفظ ذكرى نبي الله موسى أو هارون - شاهد على استمرار التسمية لا على الحدث",
      "hypothesis": "فرضية الباحث"
    },
    "naming_convention": "الاسم الحديث ثم القديم بين قوسين",
    "coordinate_note": "[longitude, latitude] WGS84 - النقاط الساحلية مراجعة ومزاحة إلى اليابسة"
  },
  "features": [
    {
      "type": "Feature",
      "properties": {
        "name": "طريق الملوك (الهضبة الشرقية)",
        "stroke": "#6c3483",
        "stroke-width": 3,
        "stroke-opacity": 0.9,
        "tier": "road",
        "note": "الشريان الرئيسي شرق الغور من الشام إلى رأس الخليج"
      },
      "geometry": {
        "type": "LineString",
        "coordinates": [
          [
            35.795,
            31.716
          ],
          [
            35.783,
            31.5
          ],
          [
            35.701,
            31.18
          ],
          [
            35.6167,
            30.7333
          ],
          [
            35.56,
            30.53
          ],
          [
            35.5058,
            30.3316
          ],
          [
            35.734,
            30.192
          ],
          [
            35.008,
            29.53
          ]
        ]
      }
    },
    {
      "type": "Feature",
      "properties": {
        "name": "طريق المرتفعات (الضفة الغربية)",
        "stroke": "#1f618d",
        "stroke-width": 3,
        "stroke-opacity": 0.9,
        "tier": "road",
        "note": "خط الذروة الجبلي الرابط بين مدن الوسط والجنوب"
      },
      "geometry": {
        "type": "LineString",
        "coordinates": [
          [
            35.28,
            32.213
          ],
          [
            35.2467,
            31.7784
          ],
          [
            35.0998,
            31.5326
          ],
          [
            34.8408,
            31.245
          ]
        ]
      }
    },
    {
      "type": "Feature",
      "properties": {
        "name": "طريق الغور (وادي الأردن)",
        "stroke": "#117864",
        "stroke-width": 3,
        "stroke-opacity": 0.9,
        "tier": "road",
        "note": "المحور الشمالي-الجنوبي داخل الغور"
      },
      "geometry": {
        "type": "LineString",
        "coordinates": [
          [
            35.5017,
            32.5036
          ],
          [
            35.6183,
            32.2
          ],
          [
            35.546,
            32.103
          ],
          [
            35.4436,
            31.8711
          ]
        ]
      }
    },
    {
      "type": "Feature",
      "properties": {
        "name": "درب وادي عربة",
        "stroke": "#b9770e",
        "stroke-width": 3,
        "stroke-opacity": 0.9,
        "tier": "road",
        "note": "ممر المنخفض بين جنوب البحر الميت ورأس الخليج، وخط النحاس"
      },
      "geometry": {
        "type": "LineString",
        "coordinates": [
          [
            35.435,
            30.68
          ],
          [
            35.24,
            30.19
          ],
          [
            34.9553,
            29.7889
          ],
          [
            34.9864,
            29.5228
          ],
          [
            35.008,
            29.53
          ]
        ]
      }
    },
    {
      "type": "Feature",
      "properties": {
        "name": "درب الساحل إلى مدين",
        "stroke": "#a04000",
        "stroke-width": 3,
        "stroke-opacity": 0.9,
        "tier": "road",
        "note": "الساحل الضيق ثم الانعطاف داخلاً في وادي عفال"
      },
      "geometry": {
        "type": "LineString",
        "coordinates": [
          [
            35.008,
            29.53
          ],
          [
            34.948,
            29.287
          ],
          [
            34.97,
            28.54
          ],
          [
            35.0208,
            28.4783
          ]
        ]
      }
    },
    {
      "type": "Feature",
      "properties": {
        "name": "العقبة (أيلة)",
        "modern_name": "العقبة",
        "ancient_name": "أيلة",
        "tier": "attested",
        "marker-color": "#f1c40f",
        "marker-size": "large",
        "evidence": "عقدة الطرق الوحيدة بين الشام وشمال الحجاز"
      },
      "geometry": {
        "type": "Point",
        "coordinates": [
          35.008,
          29.53
        ]
      }
    },
    {
      "type": "Feature",
      "properties": {
        "name": "الكرك (قير موآب / قير حارسة)",
        "modern_name": "الكرك",
        "ancient_name": "قير موآب / قير حارسة",
        "tier": "attested",
        "marker-color": "#16a085",
        "marker-size": "large",
        "evidence": "أول مركز مرتفع على الضفة الشرقية، على طريق الملوك"
      },
      "geometry": {
        "type": "Point",
        "coordinates": [
          35.701,
          31.18
        ]
      }
    },
    {
      "type": "Feature",
      "properties": {
        "name": "بئر السبع / تل السبع (بئر شيبع)",
        "modern_name": "بئر السبع / تل السبع",
        "ancient_name": "بئر شيبع",
        "tier": "attested",
        "marker-color": "#27ae60",
        "marker-size": "large",
        "evidence": "بئر عميقة محفورة في الصخر؛ آخر مركز مياه ثابت قبل البرية"
      },
      "geometry": {
        "type": "Point",
        "coordinates": [
          34.8408,
          31.245
        ]
      }
    },
    {
      "type": "Feature",
      "properties": {
        "name": "أريحا / تل السلطان (يريحو)",
        "modern_name": "أريحا / تل السلطان",
        "ancient_name": "يريحو",
        "tier": "attested",
        "marker-color": "#27ae60",
        "marker-size": "large",
        "evidence": "أقدم مدينة مسوّرة معروفة؛ نبع عين السلطان الدائم"
      },
      "geometry": {
        "type": "Point",
        "coordinates": [
          35.4436,
          31.8711
        ]
      }
    },
    {
      "type": "Feature",
      "properties": {
        "name": "وادي تمنع (مناجم ومعبد حتحور)",
        "modern_name": "وادي تمنع",
        "ancient_name": "مناجم ومعبد حتحور",
        "tier": "attested",
        "marker-color": "#c0392b",
        "marker-size": "large",
        "marker-symbol": "monument",
        "evidence": "معبد مصري لحتحور أنشئ في عهد سيتي الأول واستُعمل حتى رمسيس الخامس؛ مناجم نحاس مصرية في القرنين 13 و12 ق.م؛ عُثر فيه على فخار قُرَيّة المصبوغ (الفخار المدياني)، ثم على طور خيمة-معبد مدياني بعد انسحاب المصريين.",
        "role": "حضور مصري مؤرَّخ داخل وادي عربة نفسه، ورابط مادي بين شمال غرب الجزيرة والعربة"
      },
      "geometry": {
        "type": "Point",
        "coordinates": [
          34.9553,
          29.7889
        ]
      }
    }
  ]
}